IRIDIUM 112             
1 41925U 17003J   24075.93479444  .00000059  00000+0  13959-4 0  9998
2 41925  86.3914  72.3518 0002032  89.6674 270.4754 14.34217757375271
IRIDIUM 111             
1 41926U 17003K   24075.92210829  .00000166  00000+0  52048-4 0  9999
2 41926  86.3916  72.4096 0002112  95.4173 264.7264 14.34217254375256
IRIDIUM 113             
1 42803U 17039A   24076.18114760  .00000047  00000+0  95569-5 0  9993
2 42803  86.3955 306.0945 0001969  91.5349 268.6073 14.34217517353220
IRIDIUM 123             
1 42804U 17039B   24076.15285757  .00000052  00000+0  11447-4 0  9994
2 42804  86.4009 337.6028 0001910  88.3639 271.7775 14.34217895351980
IRIDIUM 120             
1 42805U 17039C   24075.19804523  .00000105  00000+0  30471-4 0  9993
2 42805  86.3942 306.3949 0002159  85.6093 274.5350 14.34218391353075
IRIDIUM 115             
1 42806U 17039D   24075.60686661  .00000455  00000+0  12914-3 0  9990
2 42806  86.4482 306.2349 0001984  90.2203 269.9225 14.43281540355470
IRIDIUM 118             
1 42807U 17039E   24076.18456958  .00000029  00000+0  31509-5 0  9999
2 42807  86.4011 337.5915 0002149  84.3975 275.7466 14.34216985351995
IRIDIUM 117             
1 42808U 17039F   24076.20359374  .00000072  00000+0  18544-4 0  9998
2 42808  86.4009 337.5487 0002101  90.9281 269.2156 14.34215543352026
